EUTELSAT QUANTUM        
1 49056U 21069B   26008.10024962  .00000130  00000+0  00000+0 0  9994
2 49056   0.0108  23.3758 0003680 270.3022 257.7566  1.00272906 16323
EUTELSAT KONNECT VHTS   
1 53765U 22110A   26008.09790235  .00000021  00000+0  00000+0 0  9994
2 53765   0.0578  96.6365 0002536 170.4333 238.5470  1.00272127  5231
EUTELSAT HOTBIRD 13F    
1 54048U 22134A   26008.02856859  .00000091  00000+0  00000+0 0  9990
2 54048   0.0598 286.0552 0002117  71.9880 132.7982  1.00271287 11773
EUTELSAT HOTBIRD 13G    
1 54225U 22146A   26008.02856859  .00000091  00000+0  00000+0 0  9990
2 54225   0.0510 226.8721 0001981 315.2908 308.6857  1.00271297  5866
EUTELSAT 10B            
1 54259U 22157A   26008.02796192  .00000072  00000+0  00000+0 0  9991
2 54259   0.0609  94.6417 0000455  64.0614 328.8895  1.00269625 11420
EUTELSAT 36D            
1 59346U 24059A   26007.92405912  .00000159  00000+0  00000+0 0  9997
2 59346   0.0195  60.0333 0000673 293.2399 122.7047  1.00267439  6542
